STARLINK-2637
1 28356C 21038D   21325.11804541 -.00010125  00000-0 -67820-3 0  3257
2 28356  53.0565 207.6892 0002598  64.4288  94.8097 15.06416333    12
